NORAD_CAT_ID,OBJECT_NAME,OBJECT_TYPE,EPOCH,MEAN_MOTION,ECCENTRICITY,INCLINATION,RA_OF_ASC_NODE,ARG_OF_PERICENTER,MEAN_ANOMALY,BSTAR,MEAN_MOTION_DOT,MEAN_MOTION_DDOT,TLE_LINE0,TLE_LINE1,TLE_LINE2,SEMIMAJOR_AXIS,PERIOD,APOGEE,PERIGEE,DECAYED
52629.0,STARLINK-4022,PAYLOAD,2024-05-11 20:51:56,15.08858101,9.29e-05,53.2169,22.5551,91.2373,268.8726,-0.00024952,-4.259e-05,0.0,0 STARLINK-4022,1 52629U 22052AH  24132.86940931 -.00004259  00000-0 -24952-3 0  9994,2 52629  53.2169  22.5551 0000929  91.2373 268.8726 15.08858101110702,6917.825,95.436,540.333,539.047,0.0
52629.0,STARLINK-4022,PAYLOAD,2024-05-11 22:27:20,15.08858023,0.0001097,53.2164,22.257,84.1841,275.9276,-0.00023947,-4.099e-05,0.0,0 STARLINK-4022,1 52629U 22052AH  24132.93564924 -.00004099  00000-0 -23947-3 0  9991,2 52629  53.2164  22.2570 0001097  84.1841 275.9276 15.08858023110334,6917.825,95.436,540.449,538.931,0.0
52629.0,STARLINK-4022,PAYLOAD,2024-05-12 09:35:05,15.08772707,0.0001825,53.2168,20.1786,87.4618,272.6582,-0.0019206,-0.00030669,0.0,0 STARLINK-4022,1 52629U 22052AH  24133.39936702 -.00030669  00000-0 -19206-2 0  9993,2 52629  53.2168  20.1786 0001825  87.4618 272.6582 15.08772707110788,6918.086,95.442,541.214,538.689,0.0
52629.0,STARLINK-4022,PAYLOAD,2024-05-12 22:18:12,15.08769162,0.0001591,53.2157,17.7986,79.8308,280.2864,-0.00094862,-0.00015324,0.0,0 STARLINK-4022,1 52629U 22052AH  24133.92931129 -.00015324  00000-0 -94862-3 0  9993,2 52629  53.2157  17.7986 0001591  79.8308 280.2864 15.08769162110487,6918.097,95.442,541.063,538.861,0.0
52629.0,STARLINK-4022,PAYLOAD,2024-05-12 23:53:35,15.08799615,0.0001586,53.2171,17.5012,72.1651,287.9515,0.0018996,0.0003004,0.0,0 STARLINK-4022,1 52629U 22052AH  24133.99555098  .00030040  00000-0  18996-2 0  9990,2 52629  53.2171  17.5012 0001586  72.1651 287.9515 15.08799615110878,6918.004,95.44,540.966,538.772,0.0
52629.0,STARLINK-4022,PAYLOAD,2024-05-13 09:25:54,15.08822344,0.0001349,53.2164,15.7178,85.7823,274.3323,0.0021441,0.00033984,0.0,0 STARLINK-4022,1 52629U 22052AH  24134.39299664  .00033984  00000-0  21441-2 0  9998,2 52629  53.2164  15.7178 0001349  85.7823 274.3323 15.08822344110559,6917.934,95.439,540.733,538.866,0.0
52629.0,STARLINK-4022,PAYLOAD,2024-05-14 09:16:39,15.08886053,0.0001305,53.2162,11.2583,82.8858,277.2282,0.0010432,0.00016374,0.0,0 STARLINK-4022,1 52629U 22052AH  24135.38656887  .00016374  00000-0  10432-2 0  9994,2 52629  53.2162  11.2583 0001305  82.8858 277.2282 15.08886053111088,6917.74,95.435,540.507,538.702,0.0
52629.0,STARLINK-4022,PAYLOAD,2024-05-14 18:48:57,15.08851796,0.0001446,53.2162,9.4728,91.5095,268.6063,-0.0004114,-6.832e-05,0.0,0 STARLINK-4022,1 52629U 22052AH  24135.78400427 -.00006832  00000-0 -41140-3 0  9996,2 52629  53.2162   9.4728 0001446  91.5095 268.6063 15.08851796111148,6917.844,95.437,540.71,538.709,0.0
52629.0,STARLINK-4022,PAYLOAD,2024-05-14 21:59:44,15.08853493,0.0001455,53.2164,8.8752,111.533,248.5817,-0.0002438,-4.167e-05,0.0,0 STARLINK-4022,1 52629U 22052AH  24135.91648227 -.00004167  00000-0 -24380-3 0  9999,2 52629  53.2164   8.8752 0001455 111.5330 248.5817 15.08853493110784,6917.839,95.437,540.711,538.698,0.0
52629.0,STARLINK-4022,PAYLOAD,2024-05-15 09:07:26,15.08851303,0.0001561,53.2168,6.7925,118.7666,241.3483,0.0005141,7.906e-05,0.0,0 STARLINK-4022,1 52629U 22052AH  24136.38016368  .00007906  00000-0  51410-3 0  9992,2 52629  53.2168   6.7925 0001561 118.7666 241.3483 15.08851303110852,6917.846,95.437,540.791,538.631,0.0
52629.0,STARLINK-4022,PAYLOAD,2024-05-15 20:15:07,15.08856842,0.0001833,53.2172,4.7113,111.6927,248.4261,6.8008e-05,7.95e-06,0.0,0 STARLINK-4022,1 52629U 22052AH  24136.84384138  .00000795  00000-0  68008-4 0  9997,2 52629  53.2172   4.7113 0001833 111.6927 248.4261 15.08856842111304,6917.829,95.436,540.962,538.426,0.0
52629.0,STARLINK-4022,PAYLOAD,2024-05-15 21:50:31,15.08860666,0.000208,53.2173,4.4164,89.5471,270.5759,0.00014486,2.019e-05,0.0,0 STARLINK-4022,1 52629U 22052AH  24136.91008234  .00002019  00000-0  14486-3 0  9996,2 52629  53.2173   4.4164 0002080  89.5471 270.5759 15.08860666110935,6917.817,95.436,541.121,538.243,0.0
52629.0,STARLINK-4022,PAYLOAD,2024-05-16 01:01:17,15.08856895,0.0001363,53.2168,3.8198,102.4914,257.623,0.00054003,8.321e-05,0.0,0 STARLINK-4022,1 52629U 22052AH  24137.04256108  .00008321  00000-0  54003-3 0  9997,2 52629  53.2168   3.8198 0001363 102.4914 257.6230 15.08856895110950,6917.829,95.436,540.637,538.751,0.0
52629.0,STARLINK-4022,PAYLOAD,2024-05-16 21:41:17,15.08854262,0.0002156,53.217,359.9537,89.0966,271.0273,0.00031828,4.783e-05,0.0,0 STARLINK-4022,1 52629U 22052AH  24137.90368025  .00004783  00000-0  31828-3 0  9992,2 52629  53.2170 359.9537 0002156  89.0966 271.0273 15.08854262111081,6917.837,95.437,541.193,538.21,0.0
52629.0,STARLINK-4022,PAYLOAD,2024-05-17 21:32:05,15.0883557,0.0002512,53.2173,355.4915,81.4494,278.6783,3.7877e-05,3.14e-06,0.0,0 STARLINK-4022,1 52629U 22052AH  24138.89728696  .00000314  00000-0  37877-4 0  9992,2 52629  53.2173 355.4915 0002512  81.4494 278.6783 15.08835570111612,6917.894,95.438,541.497,538.021,0.0
52629.0,STARLINK-4022,PAYLOAD,2024-05-18 07:04:24,15.08847541,0.0001646,53.2219,353.7104,79.2456,280.8722,0.00023932,3.524e-05,0.0,0 STARLINK-4022,1 52629U 22052AH  24139.29472826  .00003524  00000-0  23932-3 0  9990,2 52629  53.2219 353.7104 0001646  79.2456 280.8722 15.08847541111297,6917.857,95.437,540.861,538.584,0.0
52629.0,STARLINK-4022,PAYLOAD,2024-05-18 21:22:53,15.08833385,0.0001097,53.215,351.0344,21.3793,338.7244,0.00017254,2.459e-05,0.0,0 STARLINK-4022,1 52629U 22052AH  24139.89089685  .00002459  00000-0  17254-3 0  9999,2 52629  53.2150 351.0344 0001097  21.3793 338.7244 15.08833385111765,6917.901,95.438,540.525,539.007,0.0
52629.0,STARLINK-4022,PAYLOAD,2024-05-19 19:38:18,15.08828726,7.7e-05,53.2155,346.8745,47.4449,312.6608,5.6144e-06,-1.98e-06,0.0,0 STARLINK-4022,1 52629U 22052AH  24140.81826679 -.00000198  00000-0  56144-5 0  9997,2 52629  53.2155 346.8745 0000770  47.4449 312.6608 15.08828726111905,6917.915,95.438,540.313,539.247,0.0
52629.0,STARLINK-4022,PAYLOAD,2024-05-20 13:07:32,15.08841864,0.0001151,53.2166,343.6041,74.6059,285.506,0.00048921,7.507e-05,0.0,0 STARLINK-4022,1 52629U 22052AH  24141.54690909  .00007507  00000-0  48921-3 0  9995,2 52629  53.2166 343.6041 0001151  74.6059 285.5060 15.08841864112015,6917.875,95.437,540.536,538.943,0.0
52629.0,STARLINK-4022,PAYLOAD,2024-05-21 01:50:37,15.08864514,0.0001143,53.2162,341.2244,76.3941,283.7178,0.00084581,0.00013208,0.0,0 STARLINK-4022,1 52629U 22052AH  24142.07682206  .00013208  00000-0  84581-3 0  9992,2 52629  53.2162 341.2244 0001143  76.3941 283.7178 15.08864514112095,6917.805,95.436,540.461,538.88,0.0
52629.0,STARLINK-4022,PAYLOAD,2024-05-21 19:19:51,15.08851635,0.0001263,53.2164,337.9526,74.4382,285.675,0.00034512,5.211e-05,0.0,0 STARLINK-4022,1 52629U 22052AH  24142.80546186  .00005211  00000-0  34512-3 0  9993,2 52629  53.2164 337.9526 0001263  74.4382 285.6750 15.08851635112203,6917.845,95.437,540.584,538.836,0.0
52629.0,STARLINK-4022,PAYLOAD,2024-05-21 22:30:38,15.08855234,0.0001262,53.2161,337.3572,80.2549,279.8586,0.00051193,7.872e-05,0.0,0 STARLINK-4022,1 52629U 22052AH  24142.93794032  .00007872  00000-0  51193-3 0  9991,2 52629  53.2161 337.3572 0001262  80.2549 279.8586 15.08855234111844,6917.834,95.437,540.572,538.826,0.0
52629.0,STARLINK-4022,PAYLOAD,2024-05-23 19:01:25,15.08839252,0.0001098,53.2168,329.029,99.0978,261.0138,-2.9585e-05,-7.59e-06,0.0,0 STARLINK-4022,1 52629U 22052AH  24144.79265843 -.00000759  00000-0 -29585-4 0  9990,2 52629  53.2168 329.0290 0001098  99.0978 261.0138 15.08839252112509,6917.883,95.438,540.507,538.988,0.0
52629.0,STARLINK-4022,PAYLOAD,2024-05-24 12:30:40,15.08834331,0.0001042,53.217,325.7576,106.7439,253.3667,9.5437e-05,1.231e-05,0.0,0 STARLINK-4022,1 52629U 22052AH  24145.52130117  .00001231  00000-0  95437-4 0  9990,2 52629  53.2170 325.7576 0001042 106.7439 253.3667 15.08834331112233,6917.898,95.438,540.484,539.042,0.0
52629.0,STARLINK-4022,PAYLOAD,2024-05-24 22:02:58,15.08841022,9.56e-05,53.2168,323.976,102.3623,257.7476,0.00015077,2.113e-05,0.0,0 STARLINK-4022,1 52629U 22052AH  24145.91873636  .00002113  00000-0  15077-3 0  9994,2 52629  53.2168 323.9760 0000956 102.3623 257.7476 15.08841022112292,6917.877,95.437,540.404,539.081,0.0
52629.0,STARLINK-4022,PAYLOAD,2024-05-25 12:21:27,15.08834482,0.0001199,53.2166,321.2992,95.3791,264.7338,7.9881e-05,9.84e-06,0.0,0 STARLINK-4022,1 52629U 22052AH  24146.51490537  .00000984  00000-0  79881-4 0  9994,2 52629  53.2166 321.2992 0001199  95.3791 264.7338 15.08834482112764,6917.897,95.438,540.592,538.933,0.0
52629.0,STARLINK-4022,PAYLOAD,2024-05-25 18:43:01,15.08826812,0.0001002,53.217,320.1104,91.4944,268.6162,2.1236e-05,5e-07,0.0,0 STARLINK-4022,1 52629U 22052AH  24146.77987271  .00000050  00000-0  21236-4 0  9993,2 52629  53.2170 320.1104 0001002  91.4944 268.6162 15.08826812112803,6917.921,95.438,540.479,539.093,0.0
52629.0,STARLINK-4022,PAYLOAD,2024-05-26 04:15:19,15.08832834,9.23e-05,53.217,318.3262,92.1139,267.9959,4.2424e-05,3.87e-06,0.0,0 STARLINK-4022,1 52629U 22052AH  24147.17730919  .00000387  00000-0  42424-4 0  9998,2 52629  53.2170 318.3262 0000923  92.1139 267.9959 15.08832834112865,6917.902,95.438,540.406,539.129,0.0
52629.0,STARLINK-4022,PAYLOAD,2024-05-26 12:12:17,15.08814852,0.0001056,53.2177,316.8476,88.1323,271.979,-0.0001848,-3.226e-05,0.0,0 STARLINK-4022,1 52629U 22052AH  24147.50853024 -.00003226  00000-0 -18480-3 0  9999,2 52629  53.2177 316.8476 0001056  88.1323 271.9790 15.08814852112914,6917.957,95.439,540.553,539.092,0.0
52629.0,STARLINK-4022,PAYLOAD,2024-05-26 20:09:10,15.08839548,0.0001059,53.2175,315.3529,92.8044,267.3069,0.00014415,2.007e-05,0.0,0 STARLINK-4022,1 52629U 22052AH  24147.83970541  .00002007  00000-0  14415-3 0  9997,2 52629  53.2175 315.3529 0001059  92.8044 267.3069 15.08839548112962,6917.882,95.438,540.479,539.014,0.0
